[{"OBJECT_NAME":"OBJECT C","OBJECT_ID":"2024-085C","EPOCH":"2026-03-09T22:49:58.289376","MEAN_MOTION":15.31893958,"ECCENTRICITY":0.00283931,"INCLINATION":97.3357,"RA_OF_ASC_NODE":145.6975,"ARG_OF_PERICENTER":37.3887,"MEAN_ANOMALY":322.9323,"EPHEMERIS_TYPE":0,"CLASSIFICATION_TYPE":"U","NORAD_CAT_ID":59679,"ELEMENT_SET_NO":999,"REV_AT_EPOCH":10244,"BSTAR":0.00039740634,"MEAN_MOTION_DOT":0.0001232,"MEAN_MOTION_DDOT":0},{"OBJECT_NAME":"STARLINK-32190","OBJECT_ID":"2024-133T","EPOCH":"2026-03-09T21:31:30.584928","MEAN_MOTION":15.30199688,"ECCENTRICITY":7.685e-5,"INCLINATION":53.1597,"RA_OF_ASC_NODE":295.9809,"ARG_OF_PERICENTER":117.9999,"MEAN_ANOMALY":242.108,"EPHEMERIS_TYPE":0,"CLASSIFICATION_TYPE":"U","NORAD_CAT_ID":60318,"ELEMENT_SET_NO":999,"REV_AT_EPOCH":9167,"BSTAR":-5.5474253e-5,"MEAN_MOTION_DOT":-2.001e-5,"MEAN_MOTION_DDOT":0}]
